{"type": "FeatureCollection", "features": [ {"type": "Feature", "properties": {"norad_id": 30686, "name": "FENGYUN 1C DEB", "group": "fengyun-1c-debris", "lat": -10.572646453321243, "lon": 170.8820704505132, "alt_km": 750.4957727130395, "timestamp": "2025-12-02T10:50:47.552149+00:00", "meta": {"OBJECT_NAME": "FENGYUN 1C DEB", "OBJECT_ID": "1999-025AQU", "EPOCH": "2025-12-02T01:40:21.074304", "MEAN_MOTION": 14.73674846, "ECCENTRICITY": 0.014421, "INCLINATION": 99.0336, "RA_OF_ASC_NODE": 168.755, "ARG_OF_PERICENTER": 153.8048, "MEAN_ANOMALY": 329.3466, "EPHEMERIS_TYPE": 0, "CLASSIFICATION_TYPE": "U", "NORAD_CAT_ID": 30686, "ELEMENT_SET_NO": 999, "REV_AT_EPOCH": 99444, "BSTAR": 0.0010876, "MEAN_MOTION_DOT": 8.319e-05, "MEAN_MOTION_DDOT": 0}, "tle": {"line1": "1 30686U 99025AQU 25336.06968836  .00008319  00000+0  10876-2 0  9997", "line2": "2 30686  99.0336 168.7550 0144210 153.8048 329.3466 14.73674846994441"}}, "geometry": {"type": "Point", "coordinates": [170.8820704505132, -10.572646453321243]}}, {"type": "Feature", "properties": {"norad_id": 30688, "name": "FENGYUN 1C DEB", "group": "fengyun-1c-debris", "lat": 27.861804877982404, "lon": 45.14332679071274, "alt_km": 773.7172273474998, "timestamp": "2025-12-02T10:50:47.552159+00:00", "meta": {"OBJECT_NAME": "FENGYUN 1C DEB", "OBJECT_ID": "1999-025AQW", "EPOCH": "2025-12-02T04:09:06.005952", "MEAN_MOTION": 14.32547801, "ECCENTRICITY": 0.001499, "INCLINATION": 98.702, "RA_OF_ASC_NODE": 49.5072, "ARG_OF_PERICENTER": 349.4212, "MEAN_ANOMALY": 40.9939, "EPHEMERIS_TYPE": 0, "CLASSIFICATION_TYPE": "U", "NORAD_CAT_ID": 30688, "ELEMENT_SET_NO": 999, "REV_AT_EPOCH": 97109, "BSTAR": 0.0018616, "MEAN_MOTION_DOT": 5.014e-05, "MEAN_MOTION_DDOT": 0}, "tle": {"line1": "1 30688U 99025AQW 25336.17298618  .00005014  00000+0  18616-2 0  9994", "line2": "2 30688  98.7020  49.5072 0014990 349.4212  40.9939 14.32547801971093"}}, "geometry": {"type": "Point", "coordinates": [45.14332679071274, 27.861804877982404]}}, {"type": "Feature", "properties": {"norad_id": 30689, "name": "FENGYUN 1C DEB", "group": "fengyun-1c-debris", "lat": 72.03273288742928, "lon": -65.21458536501835, "alt_km": 803.1759083704228, "timestamp": "2025-12-02T10:50:47.552169+00:00", "meta": {"OBJECT_NAME": "FENGYUN 1C DEB", "OBJECT_ID": "1999-025AQX", "EPOCH": "2025-12-01T22:50:58.569792", "MEAN_MOTION": 14.11743338, "ECCENTRICITY": 0.0111457, "INCLINATION": 98.7073, "RA_OF_ASC_NODE": 322.5014, "ARG_OF_PERICENTER": 133.753, "MEAN_ANOMALY": 282.5106, "EPHEMERIS_TYPE": 0, "CLASSIFICATION_TYPE": "U", "NORAD_CAT_ID": 30689, "ELEMENT_SET_NO": 999, "REV_AT_EPOCH": 96738, "BSTAR": 0.00037433, "MEAN_MOTION_DOT": 6.81e-06, "MEAN_MOTION_DDOT": 0}, "tle": {"line1": "1 30689U 99025AQX 25335.95206678  .00000681  00000+0  37433-3 0  9999", "line2": "2 30689  98.7073 322.5014 0111457 133.7530 282.5106 14.11743338967382"}}, "geometry": {"type": "Point", "coordinates": [-65.21458536501835, 72.03273288742928]}}, {"type": "Feature", "properties": {"norad_id": 30690, "name": "FENGYUN 1C DEB", "group": "fengyun-1c-debris", "lat": 66.14714114203966, "lon": 108.19767281250773, "alt_km": 804.3890609535547, "timestamp": "2025-12-02T10:50:47.552180+00:00", "meta": {"OBJECT_NAME": "FENGYUN 1C DEB", "OBJECT_ID": "1999-025AQY", "EPOCH": "2025-12-02T01:49:48.915840", "MEAN_MOTION": 14.02260404, "ECCENTRICITY": 0.0104313, "INCLINATION": 99.1594, "RA_OF_ASC_NODE": 266.4193, "ARG_OF_PERICENTER": 105.2242, "MEAN_ANOMALY": 271.2487, "EPHEMERIS_TYPE": 0, "CLASSIFICATION_TYPE": "U", "NORAD_CAT_ID": 30690, "ELEMENT_SET_NO": 999, "REV_AT_EPOCH": 95558, "BSTAR": 0.0012443, "MEAN_MOTION_DOT": 1.955e-05, "MEAN_MOTION_DDOT": 0}, "tle": {"line1": "1 30690U 99025AQY 25336.07626060  .00001955  00000+0  12443-2 0  9994", "line2": "2 30690  99.1594 266.4193 0104313 105.2242 271.2487 14.02260404955582"}}, "geometry": {"type": "Point", "coordinates": [108.19767281250773, 66.14714114203966]}}, {"type": "Feature", "properties": {"norad_id": 30691, "name": "FENGYUN 1C DEB", "group": "fengyun-1c-debris", "lat": -43.772959199781006, "lon": 160.00665404903813, "alt_km": 855.7407603022511, "timestamp": "2025-12-02T10:50:47.552190+00:00", "meta": {"OBJECT_NAME": "FENGYUN 1C DEB", "OBJECT_ID": "1999-025AQZ", "EPOCH": "2025-12-01T23:31:50.665728", "MEAN_MOTION": 13.89383756, "ECCENTRICITY": 0.0139127, "INCLINATION": 98.7431, "RA_OF_ASC_NODE": 348.042, "ARG_OF_PERICENTER": 262.6966, "MEAN_ANOMALY": 125.58, "EPHEMERIS_TYPE": 0, "CLASSIFICATION_TYPE": "U", "NORAD_CAT_ID": 30691, "ELEMENT_SET_NO": 999, "REV_AT_EPOCH": 94967, "BSTAR": 0.0013071, "MEAN_MOTION_DOT": 1.681e-05, "MEAN_MOTION_DDOT": 0}, "tle": {"line1": "1 30691U 99025AQZ 25335.98044752  .00001681  00000+0  13071-2 0  9990", "line2": "2 30691  98.7431 348.0420 0139127 262.6966 125.5800 13.89383756949673"}}, "geometry": {"type": "Point", "coordinates": [160.00665404903813, -43.772959199781006]}}, {"type": "Feature", "properties": {"norad_id": 30693, "name": "FENGYUN 1C DEB", "group": "fengyun-1c-debris", "lat": 2.6228202526494315, "lon": 142.28269071316666, "alt_km": 831.2068546921164, "timestamp": "2025-12-02T10:50:47.552200+00:00", "meta": {"OBJECT_NAME": "FENGYUN 1C DEB", "OBJECT_ID": "1999-025ARB", "EPOCH": "2025-12-01T11:55:14.322720", "MEAN_MOTION": 14.13265176, "ECCENTRICITY": 0.00287571, "INCLINATION": 98.6855, "RA_OF_ASC_NODE": 320.9544, "ARG_OF_PERICENTER": 199.7268, "MEAN_ANOMALY": 160.2795, "EPHEMERIS_TYPE": 0, "CLASSIFICATION_TYPE": "U", "NORAD_CAT_ID": 30693, "ELEMENT_SET_NO": 999, "REV_AT_EPOCH": 96776, "BSTAR": 0.00036200292, "MEAN_MOTION_DOT": 6.38e-06, "MEAN_MOTION_DDOT": 0}, "tle": {"line1": "1 30693U 99025ARB 25335.49669355  .00000638  00000+0  36200-3 0  9991", "line2": "2 30693  98.6855 320.9544 0028757 199.7268 160.2795 14.13265176967763"}}, "geometry": {"type": "Point", "coordinates": [142.28269071316666, 2.6228202526494315]}}, {"type": "Feature", "properties": {"norad_id": 30694, "name": "FENGYUN 1C DEB", "group": "fengyun-1c-debris", "lat": -69.64138764446746, "lon": 95.81858800397761, "alt_km": 594.620268730986, "timestamp": "2025-12-02T10:50:47.552210+00:00", "meta": {"OBJECT_NAME": "FENGYUN 1C DEB", "OBJECT_ID": "1999-025ARC", "EPOCH": "2025-12-01T20:46:41.539584", "MEAN_MOTION": 14.85887171, "ECCENTRICITY": 0.0132784, "INCLINATION": 99.0454, "RA_OF_ASC_NODE": 300.5762, "ARG_OF_PERICENTER": 329.668, "MEAN_ANOMALY": 29.6894, "EPHEMERIS_TYPE": 0, "CLASSIFICATION_TYPE": "U", "NORAD_CAT_ID": 30694, "ELEMENT_SET_NO": 999, "REV_AT_EPOCH": 99940, "BSTAR": 0.0020584, "MEAN_MOTION_DOT": 0.00021027, "MEAN_MOTION_DDOT": 0}, "tle": {"line1": "1 30694U 99025ARC 25335.86575856  .00021027  00000+0  20584-2 0  9997", "line2": "2 30694  99.0454 300.5762 0132784 329.6680  29.6894 14.85887171999406"}}, "geometry": {"type": "Point", "coordinates": [95.81858800397761, -69.64138764446746]}}, {"type": "Feature", "properties": {"norad_id": 30696, "name": "FENGYUN 1C DEB", "group": "fengyun-1c-debris", "lat": -68.97218562868079, "lon": 48.1795566443239, "alt_km": 793.6221552670659, "timestamp": "2025-12-02T10:50:47.552221+00:00", "meta": {"OBJECT_NAME": "FENGYUN 1C DEB", "OBJECT_ID": "1999-025ARE", "EPOCH": "2025-12-02T03:07:45.827328", "MEAN_MOTION": 14.44654818, "ECCENTRICITY": 0.0089914, "INCLINATION": 98.3906, "RA_OF_ASC_NODE": 25.284, "ARG_OF_PERICENTER": 157.5475, "MEAN_ANOMALY": 259.7653, "EPHEMERIS_TYPE": 0, "CLASSIFICATION_TYPE": "U", "NORAD_CAT_ID": 30696, "ELEMENT_SET_NO": 999, "REV_AT_EPOCH": 98151, "BSTAR": 0.0010369, "MEAN_MOTION_DOT": 3.73e-05, "MEAN_MOTION_DDOT": 0}, "tle": {"line1": "1 30696U 99025ARE 25336.13039152  .00003730  00000+0  10369-2 0  9995", "line2": "2 30696  98.3906  25.2840 0089914 157.5475 259.7653 14.44654818981513"}}, "geometry": {"type": "Point", "coordinates": [48.1795566443239, -68.97218562868079]}}, {"type": "Feature", "properties": {"norad_id": 30697, "name": "FENGYUN 1C DEB", "group": "fengyun-1c-debris", "lat": 46.91261555609879, "lon": -137.00877323920534, "alt_km": 833.7608764220913, "timestamp": "2025-12-02T10:50:47.552231+00:00", "meta": {"OBJECT_NAME": "FENGYUN 1C DEB", "OBJECT_ID": "1999-025ARF", "EPOCH": "2025-12-01T16:09:08.824320", "MEAN_MOTION": 14.13412736, "ECCENTRICITY": 0.00876665, "INCLINATION": 98.9085, "RA_OF_ASC_NODE": 32.5625, "ARG_OF_PERICENTER": 216.1077, "MEAN_ANOMALY": 275.9748, "EPHEMERIS_TYPE": 0, "CLASSIFICATION_TYPE": "U", "NORAD_CAT_ID": 30697, "ELEMENT_SET_NO": 999, "REV_AT_EPOCH": 96104, "BSTAR": 0.001667709, "MEAN_MOTION_DOT": 3.207e-05, "MEAN_MOTION_DDOT": 0}, "tle": {"line1": "1 30697U 99025ARF 25335.67301880  .00003207  00000+0  16677-2 0  9991", "line2": "2 30697  98.9085  32.5625 0087666 216.1077 275.9748 14.13412736961040"}}, "geometry": {"type": "Point", "coordinates": [-137.00877323920534, 46.91261555609879]}}, {"type": "Feature", "properties": {"norad_id": 30699, "name": "FENGYUN 1C DEB", "group": "fengyun-1c-debris", "lat": 68.73380635777565, "lon": -60.15406065770751, "alt_km": 732.4596766158147, "timestamp": "2025-12-02T10:50:47.552241+00:00", "meta": {"OBJECT_NAME": "FENGYUN 1C DEB", "OBJECT_ID": "1999-025ARH", "EPOCH": "2025-12-02T00:23:01.633632", "MEAN_MOTION": 14.46640864, "ECCENTRICITY": 0.0003671, "INCLINATION": 99.3116, "RA_OF_ASC_NODE": 94.4344, "ARG_OF_PERICENTER": 280.1583, "MEAN_ANOMALY": 79.9192, "EPHEMERIS_TYPE": 0, "CLASSIFICATION_TYPE": "U", "NORAD_CAT_ID": 30699, "ELEMENT_SET_NO": 999, "REV_AT_EPOCH": 97458, "BSTAR": 0.0027034, "MEAN_MOTION_DOT": 9.722e-05, "MEAN_MOTION_DDOT": 0}, "tle": {"line1": "1 30699U 99025ARH 25336.01599113  .00009722  00000+0  27034-2 0  9997", "line2": "2 30699  99.3116  94.4344 0003671 280.1583  79.9192 14.46640864974583"}}, "geometry": {"type": "Point", "coordinates": [-60.15406065770751, 68.73380635777565]}}]}